NAVSTAR 82 (USA 343)    
1 55268U 23009A   26087.18378093  .00000000  00000+0  00000+0 0  9990
2 55268  55.1104 151.7031 0005380 326.6502  28.0595  2.00547447 23616
BEIDOU-3 G4             
1 56564U 23066A   26095.48750690 -.00000280  00000+0  00000+0 0  9993
2 56564   0.5928 315.9768 0002968 157.9058  35.4666  1.00270725 10668
NVS-01 (IRNSS-1J)       
1 56759U 23076A   26095.84186718 -.00000337  00000+0  00000+0 0  9997
2 56759   2.3396 247.4057 0006457  55.8770 323.3190  1.00266106 10396
COSMOS 2569 [GLONASS-K2]
1 57517U 23114A   26095.04920926  .00000000  00000+0  00000+0 0  9998
2 57517  65.2620  75.0854 0012836 293.8382  66.0118  2.13103949 20705
BEIDOU-3 M28            
1 58654U 23207A   26095.27291094 -.00000040  00000+0  00000+0 0  9991
2 58654  55.6905  64.7614 0004908 314.4496  45.4833  1.86229856 15482
BEIDOU-3 M26            
1 58655U 23207B   26095.07040019 -.00000041  00000+0  00000+0 0  9990
2 58655  55.6923  64.7546 0005481 298.2156  61.7019  1.86229806 15466
GSAT0225 (GALILEO 29)   
1 59598U 24079A   26087.07569868  .00000039  00000+0  00000+0 0  9990
2 59598  55.0678 103.3445 0002740 270.8462 214.7370  1.70474547 11938
GSAT0227 (GALILEO 30)   
1 59600U 24079C   26094.68007228  .00000028  00000+0  00000+0 0  9994
2 59600  55.0670 103.1309 0000783   7.5517 352.4755  1.70474700 12111
GSAT0232 (GALILEO 32)   
1 61182U 24167A   26091.38929149 -.00000024  00000+0  00000+0 0  9996
2 61182  55.2109 223.4183 0004053 206.9701 148.9260  1.70474484  9561
GSAT0226 (GALILEO 31)   
1 61183U 24167B   26095.86530370 -.00000001  00000+0  00000+0 0  9993
2 61183  55.2072 223.3032 0001476 167.6532 146.6309  1.70474509  9617
BEIDOU-3 M25            
1 61186U 24168B   26095.90727604 -.00000055  00000+0  00000+0 0  9999
2 61186  54.5381 304.7539 0003707 321.3705 356.7357  1.86230390 10435
BEIDOU-3 M27            
1 61187U 24168C   26093.88644255 -.00000064  00000+0  00000+0 0  9995
2 61187  54.5346 304.8072 0002876  31.7599 146.4859  1.86230456  7877
NAVSTAR 83 (USA 440)    
1 62339U 24242A   26094.30669673 -.00000095  00000+0  00000+0 0  9991
2 62339  54.8790 337.1781 0016583   1.2127 180.4973  2.00570430  9770
NVS-02 (IRNSS-1K)       
1 62850U 25020A   26095.00066072  .00001496  00000+0  10547-2 0  9991
2 62850  20.8163 286.0516 7349922 100.7138 341.9551  2.17813205  9384
QZS-6 (MICHIBIKI-6)     
1 62876U 25023A   26095.88358310 -.00000232  00000+0  00000+0 0  9995
2 62876   0.0323 280.0750 0002122 108.3412 214.3787  1.00273812  4232
COSMOS 2584 [GLONASS-K2]
1 63130U 25042A   26095.40536352  .00000002  00000+0  00000+0 0  9996
2 63130  65.0442  75.2749 0007268 238.7090 121.2050  2.13103641  8495
NAVSTAR 84 (USA 545)    
1 64202U 25116A   26095.80033552 -.00000082  00000+0  00000+0 0  9996
2 64202  55.1886  34.0435 0008992 332.1499  31.6602  2.00551286  6426
